{
    "links": {
        "self": "http://www.neowsapp.com/rest/v1/neo/3726656?api_key=iIulBulltgU6a56xZRHN4H3l9WmuAYTsLGpBGhQ2"
    },
    "id": "3726656",
    "neo_reference_id": "3726656",
    "name": "(2015 QW8)",
    "designation": "2015 QW8",
    "nasa_jpl_url": "http://ssd.jpl.nasa.gov/sbdb.cgi?sstr=3726656",
    "absolute_magnitude_h": 23.3,
    "estimated_diameter": {
        "kilometers": {
            "estimated_diameter_min": 0.058150704,
            "estimated_diameter_max": 0.130028927
        },
        "meters": {
            "estimated_diameter_min": 58.1507039646,
            "estimated_diameter_max": 130.0289270043
        },
        "miles": {
            "estimated_diameter_min": 0.0361331611,
            "estimated_diameter_max": 0.0807962044
        },
        "feet": {
            "estimated_diameter_min": 190.7831555951,
            "estimated_diameter_max": 426.6041048727
        }
    },
    "is_potentially_hazardous_asteroid": false,
    "close_approach_data": [
        {
            "close_approach_date": "2015-07-21",
            "close_approach_date_full": "2015-Jul-21 19:48",
            "epoch_date_close_approach": 1437508080000,
            "relative_velocity": {
                "kilometers_per_second": "10.2322773421",
                "kilometers_per_hour": "36836.1984316057",
                "miles_per_hour": "22888.5811865719"
            },
            "miss_distance": {
                "astronomical": "0.0406482623",
                "lunar": "15.8121740347",
                "kilometers": "6080893.459281301",
                "miles": "3778491.9845959138"
            },
            "orbiting_body": "Earth"
        }
    ],
    "orbital_data": {
        "orbit_id": "9",
        "orbit_determination_date": "2017-04-06 08:32:16",
        "first_observation_date": "2015-08-21",
        "last_observation_date": "2015-09-07",
        "data_arc_in_days": 17,
        "observations_used": 25,
        "orbit_uncertainty": "7",
        "minimum_orbit_intersection": ".0258674",
        "jupiter_tisserand_invariant": "3.309",
        "epoch_osculation": "2459000.5",
        "eccentricity": ".5894741640615058",
        "semi_major_axis": "2.329729667329146",
        "inclination": "5.894583054930098",
        "ascending_node_longitude": "317.8055076108117",
        "orbital_period": "1298.8431912385",
        "perihelion_distance": ".9564142191910076",
        "perihelion_argument": "311.8810744210415",
        "aphelion_distance": "3.703045115467284",
        "perihelion_time": "2458500.296460658329",
        "mean_anomaly": "138.6412735407223",
        "mean_motion": ".2771697171979054",
        "equinox": "J2000",
        "orbit_class": {
            "orbit_class_type": "APO",
            "orbit_class_description": "Near-Earth asteroid orbits which cross the Earth’s orbit similar to that of 1862 Apollo",
            "orbit_class_range": "a (semi-major axis) > 1.0 AU; q (perihelion) < 1.017 AU"
        }
    },
    "is_sentry_object": false
}